CCSDS_OMM_VERS = 2.0
CREATION_DATE  = 
ORIGINATOR     = 

OBJECT_NAME    = ATLAS CENTAUR R/B
OBJECT_ID      = 1972-065B
CENTER_NAME    = EARTH
REF_FRAME      = TEME
TIME_SYSTEM    = UTC
MEAN_ELEMENT_THEORY = SGP/SGP4

EPOCH          = 2025-11-06T07:12:40.056768
MEAN_MOTION    = 14.77260934
ECCENTRICITY   = .0033262
INCLINATION    = 35.0023
RA_OF_ASC_NODE = 308.6300
ARG_OF_PERICENTER = 51.6159
MEAN_ANOMALY   = 308.7522

EPHEMERIS_TYPE = 0
CLASSIFICATION_TYPE = U
NORAD_CAT_ID   = 6155
ELEMENT_SET_NO = 999
REV_AT_EPOCH   = 82300
BSTAR          = .26205E-3
MEAN_MOTION_DOT = .1882E-4
MEAN_MOTION_DDOT = 0

CCSDS_OMM_VERS = 2.0
CREATION_DATE  = 
ORIGINATOR     = 

OBJECT_NAME    = SL-8 R/B
OBJECT_ID      = 1975-112B
CENTER_NAME    = EARTH
REF_FRAME      = TEME
TIME_SYSTEM    = UTC
MEAN_ELEMENT_THEORY = SGP/SGP4

EPOCH          = 2025-11-06T12:27:01.419552
MEAN_MOTION    = 14.38109067
ECCENTRICITY   = .00155009
INCLINATION    = 74.0604
RA_OF_ASC_NODE = 245.4766
ARG_OF_PERICENTER = 2.5761
MEAN_ANOMALY   = 357.5470

EPHEMERIS_TYPE = 0
CLASSIFICATION_TYPE = U
NORAD_CAT_ID   = 8459
ELEMENT_SET_NO = 999
REV_AT_EPOCH   = 61416
BSTAR          = .15066999E-3
MEAN_MOTION_DOT = .431E-5
MEAN_MOTION_DDOT = 0

CCSDS_OMM_VERS = 2.0
CREATION_DATE  = 
ORIGINATOR     = 

OBJECT_NAME    = SL-3 R/B
OBJECT_ID      = 1977-057B
CENTER_NAME    = EARTH
REF_FRAME      = TEME
TIME_SYSTEM    = UTC
MEAN_ELEMENT_THEORY = SGP/SGP4

EPOCH          = 2025-11-06T21:05:09.297312
MEAN_MOTION    = 15.41776804
ECCENTRICITY   = .00080296
INCLINATION    = 97.5679
RA_OF_ASC_NODE = 112.8454
ARG_OF_PERICENTER = 15.6844
MEAN_ANOMALY   = 344.4650

EPHEMERIS_TYPE = 0
CLASSIFICATION_TYPE = U
NORAD_CAT_ID   = 10114
ELEMENT_SET_NO = 999
REV_AT_EPOCH   = 64938
BSTAR          = .29971571E-3
MEAN_MOTION_DOT = .1261E-3
MEAN_MOTION_DDOT = 0

CCSDS_OMM_VERS = 2.0
CREATION_DATE  = 
ORIGINATOR     = 

OBJECT_NAME    = SEASAT 1
OBJECT_ID      = 1978-064A
CENTER_NAME    = EARTH
REF_FRAME      = TEME
TIME_SYSTEM    = UTC
MEAN_ELEMENT_THEORY = SGP/SGP4

EPOCH          = 2025-11-06T18:41:19.698144
MEAN_MOTION    = 14.45998445
ECCENTRICITY   = .00024943
INCLINATION    = 108.0058
RA_OF_ASC_NODE = 227.6030
ARG_OF_PERICENTER = 258.7155
MEAN_ANOMALY   = 101.3711

EPHEMERIS_TYPE = 0
CLASSIFICATION_TYPE = U
NORAD_CAT_ID   = 10967
ELEMENT_SET_NO = 999
REV_AT_EPOCH   = 48874
BSTAR          = .21628506E-3
MEAN_MOTION_DOT = .634E-5
MEAN_MOTION_DDOT = 0

CCSDS_OMM_VERS = 2.0
CREATION_DATE  = 
ORIGINATOR     = 

OBJECT_NAME    = SL-14 R/B
OBJECT_ID      = 1979-011B
CENTER_NAME    = EARTH
REF_FRAME      = TEME
TIME_SYSTEM    = UTC
MEAN_ELEMENT_THEORY = SGP/SGP4

EPOCH          = 2025-11-06T16:48:27.361152
MEAN_MOTION    = 14.91701674
ECCENTRICITY   = .0017633
INCLINATION    = 82.5263
RA_OF_ASC_NODE = 213.2167
ARG_OF_PERICENTER = 106.4292
MEAN_ANOMALY   = 253.8867

EPHEMERIS_TYPE = 0
CLASSIFICATION_TYPE = U
NORAD_CAT_ID   = 11267
ELEMENT_SET_NO = 999
REV_AT_EPOCH   = 51044
BSTAR          = .96540913E-4
MEAN_MOTION_DOT = .999E-5
MEAN_MOTION_DDOT = 0

CCSDS_OMM_VERS = 2.0
CREATION_DATE  = 
ORIGINATOR     = 

OBJECT_NAME    = SL-8 R/B
OBJECT_ID      = 1979-089B
CENTER_NAME    = EARTH
REF_FRAME      = TEME
TIME_SYSTEM    = UTC
MEAN_ELEMENT_THEORY = SGP/SGP4

EPOCH          = 2025-11-06T11:45:17.460288
MEAN_MOTION    = 14.42245532
ECCENTRICITY   = .00152866
INCLINATION    = 74.0683
RA_OF_ASC_NODE = 319.0730
ARG_OF_PERICENTER = 167.4651
MEAN_ANOMALY   = 192.6889

EPHEMERIS_TYPE = 0
CLASSIFICATION_TYPE = U
NORAD_CAT_ID   = 11574
ELEMENT_SET_NO = 999
REV_AT_EPOCH   = 41834
BSTAR          = .13182747E-3
MEAN_MOTION_DOT = .409E-5
MEAN_MOTION_DDOT = 0

CCSDS_OMM_VERS = 2.0
CREATION_DATE  = 
ORIGINATOR     = 

OBJECT_NAME    = SL-14 R/B
OBJECT_ID      = 1980-005B
CENTER_NAME    = EARTH
REF_FRAME      = TEME
TIME_SYSTEM    = UTC
MEAN_ELEMENT_THEORY = SGP/SGP4

EPOCH          = 2025-11-06T18:24:09.571680
MEAN_MOTION    = 14.90716767
ECCENTRICITY   = .00150509
INCLINATION    = 82.5151
RA_OF_ASC_NODE = 63.8075
ARG_OF_PERICENTER = 208.7690
MEAN_ANOMALY   = 151.2701

EPHEMERIS_TYPE = 0
CLASSIFICATION_TYPE = U
NORAD_CAT_ID   = 11672
ELEMENT_SET_NO = 999
REV_AT_EPOCH   = 45817
BSTAR          = .11559376E-3
MEAN_MOTION_DOT = .1161E-4
MEAN_MOTION_DDOT = 0

CCSDS_OMM_VERS = 2.0
CREATION_DATE  = 
ORIGINATOR     = 

OBJECT_NAME    = SL-8 R/B
OBJECT_ID      = 1981-003B
CENTER_NAME    = EARTH
REF_FRAME      = TEME
TIME_SYSTEM    = UTC
MEAN_ELEMENT_THEORY = SGP/SGP4

EPOCH          = 2025-11-06T17:27:44.462880
MEAN_MOTION    = 15.05058823
ECCENTRICITY   = .02833924
INCLINATION    = 82.9340
RA_OF_ASC_NODE = 43.2979
ARG_OF_PERICENTER = 244.8391
MEAN_ANOMALY   = 112.3203

EPHEMERIS_TYPE = 0
CLASSIFICATION_TYPE = U
NORAD_CAT_ID   = 12139
ELEMENT_SET_NO = 999
REV_AT_EPOCH   = 29614
BSTAR          = .82030303E-3
MEAN_MOTION_DOT = .29423E-3
MEAN_MOTION_DDOT = 0

CCSDS_OMM_VERS = 2.0
CREATION_DATE  = 
ORIGINATOR     = 

OBJECT_NAME    = SL-3 R/B
OBJECT_ID      = 1981-046B
CENTER_NAME    = EARTH
REF_FRAME      = TEME
TIME_SYSTEM    = UTC
MEAN_ELEMENT_THEORY = SGP/SGP4

EPOCH          = 2025-11-06T20:54:35.208576
MEAN_MOTION    = 15.38489112
ECCENTRICITY   = .00207971
INCLINATION    = 81.2331
RA_OF_ASC_NODE = 76.8046
ARG_OF_PERICENTER = 87.0594
MEAN_ANOMALY   = 273.3027

EPHEMERIS_TYPE = 0
CLASSIFICATION_TYPE = U
NORAD_CAT_ID   = 12465
ELEMENT_SET_NO = 999
REV_AT_EPOCH   = 41952
BSTAR          = .36312991E-3
MEAN_MOTION_DOT = .13928E-3
MEAN_MOTION_DDOT = 0

CCSDS_OMM_VERS = 2.0
CREATION_DATE  = 
ORIGINATOR     = 

OBJECT_NAME    = METEOR PRIRODA
OBJECT_ID      = 1981-065A
CENTER_NAME    = EARTH
REF_FRAME      = TEME
TIME_SYSTEM    = UTC
MEAN_ELEMENT_THEORY = SGP/SGP4

EPOCH          = 2025-11-06T22:01:44.855328
MEAN_MOTION    = 16.04596986
ECCENTRICITY   = .00032628
INCLINATION    = 97.4665
RA_OF_ASC_NODE = 14.8440
ARG_OF_PERICENTER = 272.6644
MEAN_ANOMALY   = 87.4262

EPHEMERIS_TYPE = 0
CLASSIFICATION_TYPE = U
NORAD_CAT_ID   = 12585
ELEMENT_SET_NO = 999
REV_AT_EPOCH   = 42505
BSTAR          = .72868528E-3
MEAN_MOTION_DOT = .481856E-2
MEAN_MOTION_DDOT = .10997911E-3

CCSDS_OMM_VERS = 2.0
CREATION_DATE  = 
ORIGINATOR     = 

OBJECT_NAME    = SL-3 R/B
OBJECT_ID      = 1981-103B
CENTER_NAME    = EARTH
REF_FRAME      = TEME
TIME_SYSTEM    = UTC
MEAN_ELEMENT_THEORY = SGP/SGP4

EPOCH          = 2025-11-06T21:53:43.980576
MEAN_MOTION    = 15.19564161
ECCENTRICITY   = .00144147
INCLINATION    = 81.1610
RA_OF_ASC_NODE = 357.2955
ARG_OF_PERICENTER = 353.5013
MEAN_ANOMALY   = 6.6028

EPHEMERIS_TYPE = 0
CLASSIFICATION_TYPE = U
NORAD_CAT_ID   = 12904
ELEMENT_SET_NO = 999
REV_AT_EPOCH   = 95457
BSTAR          = .34365793E-3
MEAN_MOTION_DOT = .7352E-4
MEAN_MOTION_DDOT = 0

CCSDS_OMM_VERS = 2.0
CREATION_DATE  = 
ORIGINATOR     = 

OBJECT_NAME    = SL-3 R/B
OBJECT_ID      = 1982-013B
CENTER_NAME    = EARTH
REF_FRAME      = TEME
TIME_SYSTEM    = UTC
MEAN_ELEMENT_THEORY = SGP/SGP4

EPOCH          = 2025-11-06T23:36:07.911360
MEAN_MOTION    = 15.20609658
ECCENTRICITY   = .00217576
INCLINATION    = 81.1729
RA_OF_ASC_NODE = 304.4539
ARG_OF_PERICENTER = 230.7694
MEAN_ANOMALY   = 129.1606

EPHEMERIS_TYPE = 0
CLASSIFICATION_TYPE = U
NORAD_CAT_ID   = 13068
ELEMENT_SET_NO = 999
REV_AT_EPOCH   = 38569
BSTAR          = .24585873E-3
MEAN_MOTION_DOT = .5448E-4
MEAN_MOTION_DDOT = 0

