ATLAS CENTAUR R/B       
1 06155U 72065B   25310.30046362  .00001882  00000+0  26205-3 0  9998
2 06155  35.0023 308.6300 0033262  51.6159 308.7522 14.77260934823008
SL-8 R/B                
1 08459U 75112B   25310.51876643  .00000431  00000+0  15067-3 0  9992
2 08459  74.0604 245.4766 0015500   2.5761 357.5470 14.38109067614163
SL-3 R/B                
1 10114U 77057B   25310.87857983  .00012610  00000+0  29972-3 0  9990
2 10114  97.5679 112.8454 0008029  15.6844 344.4650 15.41776804649383
SEASAT 1                
1 10967U 78064A   25310.77870021  .00000634  00000+0  21629-3 0  9996
2 10967 108.0058 227.6030 0002494 258.7155 101.3711 14.45998445488747
SL-14 R/B               
1 11267U 79011B   25310.70031668  .00000999  00000+0  96541-4 0  9992
2 11267  82.5263 213.2167 0017633 106.4292 253.8867 14.91701674510444
SL-8 R/B                
1 11574U 79089B   25310.48978542  .00000409  00000+0  13183-3 0  9990
2 11574  74.0683 319.0730 0015286 167.4651 192.6889 14.42245532418348
SL-14 R/B               
1 11672U 80005B   25310.76677745  .00001161  00000+0  11559-3 0  9992
2 11672  82.5151  63.8075 0015050 208.7690 151.2701 14.90716767458173
SL-8 R/B                
1 12139U 81003B   25310.72759795  .00029423  00000+0  82030-3 0  9995
2 12139  82.9340  43.2979 0283392 244.8391 112.3203 15.05058823296147
SL-3 R/B                
1 12465U 81046B   25310.87124084  .00013928  00000+0  36313-3 0  9993
2 12465  81.2331  76.8046 0020797  87.0594 273.3027 15.38489112419524
METEOR PRIRODA          
1 12585U 81065A   25310.91788027  .00481856  10998-3  72869-3 0  9991
2 12585  97.4665  14.8440 0003262 272.6644  87.4262 16.04596986425054
SL-3 R/B                
1 12904U 81103B   25310.91231459  .00007352  00000+0  34366-3 0  9995
2 12904  81.1610 357.2955 0014414 353.5013   6.6028 15.19564161954576
SL-3 R/B                
1 13068U 82013B   25310.98342490  .00005448  00000+0  24586-3 0  9990
2 13068  81.1729 304.4539 0021757 230.7694 129.1606 15.20609658385697
